,Street,City,State,Zip
1303,2416 GRANT CIR,Ames,IA,50010.0
1304,715 LYNN AVE,Ames,IA,50014.0
1305,1003 VERMONT CT,Ames,IA,50014.0
1306,2312 CLARK AVE,Ames,IA,50010.0
1307,3804 EISENHOWER AVE,Ames,IA,50010.0
1308,4812 WALLER ST,Ames,IA,50014.0
1309,1309 JEFFERSON ST,Ames,IA,50010.0
1310,1605 CRESTWOOD CIR,Ames,IA,50010.0
1311,3240 EVERGREEN RD,Ames,IA,50014.0
1312,407 JEFFREY LN 409,Ames,IA,50014.0
1313,327 STANTON AVE,Ames,IA,50012.0
1314,4019 STONE BROOKE RD,Ames,IA,50010.0
1315,527 BROWN CT,Ames,IA,50014.0
1316,3049 HARRISON RD,Ames,IA,50010.0
1317,2508 EATON AVE,Ames,IA,50010.0
1318,5312 NORRIS ST,Ames,IA,50014.0
1319,2507 TYLER AVE,Ames,IA,50010.0
1320,3120 SYCAMORE RD,Ames,IA,50014.0
1321,3031 BAYBERRY RD,Ames,IA,50014.0
1322,924 6TH ST,Ames,IA,50010.0
1323,403 BEEDLE DR,Ames,IA,50014.0
1324,3812 EISENHOWER AVE,Ames,IA,50010.0
1325,2402 SUNDOWN DR,Ames,IA,50014.0
1326,1325 MAXWELL AVE 1327,Ames,IA,50010.0
1327,1700 PIERCE CT,Ames,IA,50010.0
1328,2721 KELLOGG AVE,Ames,IA,50010.0
1329,3327 GOLDENROD CIR,Ames,IA,50014.0
1330,1106 HARDING AVE,Ames,IA,50010.0
1331,1516 GOLDEN ASPEN DR,Ames,IA,50010.0
1332,4309 CRESTMOOR AVE,Ames,IA,50010.0
1333,817 KELLOGG AVE,Ames,IA,50010.0
1334,543 FOREST GLEN,Ames,IA,50014.0
1335,4927 HEMINGWAY DR,Ames,IA,50014.0
1336,4730 HEMINGWAY DR,Ames,IA,50014.0
1337,702 HODGE AVE,Ames,IA,50010.0
1338,1450 TRUMAN PL,Ames,IA,50010.0
1339,822 POE AVE,Ames,IA,50014.0
1341,3409 POLARIS DR,Ames,IA,50010.0
1342,1212 13TH ST,Ames,IA,50010.0
1343,548 MEADOW CT,Ames,IA,50010.0
1345,1036 RIDGEWOOD AVE,Ames,IA,50010.0
1346,1124 JOHNSON ST,Ames,IA,50010.0
1347,1024 CURTISS AVE,Ames,IA,50010.0
1348,3814 BRICKMAN AVE,Ames,IA,50010.0
1349,1118 OKLAHOMA DR,Ames,IA,50014.0
1350,2907 ARROWWOOD CIR,Ames,IA,50014.0
1351,5113 SCHUBERT ST,Ames,IA,50014.0
1352,1405 INDIANA AVE,Ames,IA,50014.0
1353,5217 TABOR DR,Ames,IA,50014.0
1354,202 KEN MARIL RD,Ames,IA,50010.0
1355,2527 CLAYTON DR,Ames,IA,50010.0
1356,2119 FURMAN DR,Ames,IA,50010.0
1357,4901 SCHUBERT ST,Ames,IA,50014.0
1358,2615 CLAYTON DR,Ames,IA,50010.0
1359,5440 FROST DR,Ames,IA,50014.0
1360,2726 WHITE OAK DR,Ames,IA,50014.0
1361,2422 KINGSTON DR,Ames,IA,50010.0
1362,3630 STORY ST,Ames,IA,50014.0
1363,5418 FROST DR,Ames,IA,50014.0
1364,2810 NORTHWESTERN AVE,Ames,IA,50010.0
1365,1318 BARKLEY CT,Ames,IA,50010.0
1366,3837 WELBECK DR,Ames,IA,50010.0
1367,327 22ND ST,Ames,IA,50010.0
1368,2007 COUNTRY CLUB BLVD,Ames,IA,50014.0
1369,622 CRYSTAL ST,Ames,IA,50010.0
1370,1430 CARROLL AVE,Ames,IA,50010.0
1371,2507 WHITE OAK DR,Ames,IA,50014.0
1372,1608 TRUMAN DR,Ames,IA,50010.0
1373,3811 HOOVER AVE,Ames,IA,50010.0
1374,3107 RED FOX RD,Ames,IA,50014.0
1375,3133 MAPLEWOOD RD,Ames,IA,50014.0
1376,317 HILLTOP RD,Ames,IA,50014.0
1377,2910 BAYBERRY RD,Ames,IA,50014.0
1378,4717 HEMINGWAY DR,Ames,IA,50014.0
1379,1601 WOODHAVEN CIR,Ames,IA,50010.0
1380,1925 HUNZIKER DR,Ames,IA,50010.0
1381,3016 HARRISON RD,Ames,IA,50010.0
1383,3832 BROOKDALE AVE,Ames,IA,50010.0
1384,1504 MARSTON AVE,Ames,IA,50010.0
1385,3913 BERKSHIRE AVE,Ames,IA,50010.0
1386,124 HARTFORD DR,Ames,IA,50014.0
1387,922 DUFF AVE,Ames,IA,50010.0
1388,2332 DONALD ST,Ames,IA,50014.0
1390,621 SHELLEY AVE,Ames,IA,50014.0
1391,1315 GLENDALE AVE,Ames,IA,50010.0
1392,1120 CARROLL AVE,Ames,IA,50010.0
1393,1912 WILSON AVE,Ames,IA,50010.0
1394,727 GARNET DR,Ames,IA,50010.0
1395,3405 EMERALD DR,Ames,IA,50010.0
1396,250 CAMPUS AVE 248,Ames,IA,50012.0
1397,430 ASH AVE,Ames,IA,50014.0
1398,1412 INDIANA AVE,Ames,IA,50014.0
1399,4112 HASTINGS AVE,Ames,IA,50010.0
1400,3915 QUEBEC ST,Ames,IA,50014.0
1401,2321 SUNDOWN DR,Ames,IA,50014.0
1402,1630 JOHNSON ST,Ames,IA,50010.0
1404,2966 MONROE DR,Ames,IA,50010.0
1405,419 LYNN AVE,Ames,IA,50014.0
1406,620 LYNN AVE,Ames,IA,50014.0
1407,1010 JARRETT CIR,Ames,IA,50014.0
1408,2129 STEVENSON DR,Ames,IA,50010.0
1409,3123 STORY ST,Ames,IA,50014.0
1410,2505 GREEN HILLS DR,Ames,IA,50014.0
1411,413 HAWTHORNE  AVE,Ames,IA,50014.0
1412,721 MEADOW PL,Ames,IA,50010.0
1413,3916 FLETCHER BLVD,Ames,IA,50010.0
1414,2905 ROXBORO DR,Ames,IA,50010.0
1416,234 SOUTH DAKOTA AVE 236,Ames,IA,50014.0
1417,1011 CURTISS AVE,Ames,IA,50010.0
1418,1007 VERMONT CT,Ames,IA,50014.0
1419,1509 JACKSON DR,Ames,IA,50010.0
1420,3815 QUEBEC ST,Ames,IA,50014.0
1421,807 HODGE AVE,Ames,IA,50010.0
1422,2402 SUNCREST DR,Ames,IA,50014.0
1423,1210 GARFIELD CIR,Ames,IA,50014.0
1424,516 OLIVER CIR,Ames,IA,50014.0
1425,1106 STAFFORD AVE,Ames,IA,50010.0
1426,210 S HAZEL AVE,Ames,IA,50010.0
1427,2427 WELBECK DR,Ames,IA,50010.0
1428,2638 CLEVELAND DR,Ames,IA,50010.0
1429,3004 NORTHWOOD DR,Ames,IA,50010.0
1430,1017 N 2ND ST,Ames,IA,50010.0
1431,1809 MAXWELL AVE,Ames,IA,50010.0
1432,3314 CLINTON CT,Ames,IA,50010.0
1433,1309 GARFIELD AVE,Ames,IA,50014.0
1434,824 WILSON AVE,Ames,IA,50010.0
1435,611 11TH ST,Ames,IA,50010.0
1436,115 E 13TH ST,Ames,IA,50010.0
1437,2324 KNAPP ST,Ames,IA,50014.0
1438,803 KELLOGG AVE,Ames,IA,50010.0
1439,3118 GREENWOOD RD,Ames,IA,50014.0
1440,3502 JEWEL DR,Ames,IA,50010.0
1441,2810 PINEHURST CIR,Ames,IA,50010.0
1442,4914 WALLER ST,Ames,IA,50014.0
1443,1415 STAFFORD AVE,Ames,IA,50010.0
1444,1802 CLARK AVE,Ames,IA,50010.0
1445,3603 WOODLAND ST,Ames,IA,50014.0
1447,2207 HAYES AVE,Ames,IA,50010.0
1448,3801 COLUMBINE AVE,Ames,IA,50010.0
1449,614 POE AVE,Ames,IA,50014.0
1450,3815 VALLEY VIEW RD,Ames,IA,50010.0
1451,5129 SCHUBERT ST,Ames,IA,50014.0
1452,3809 EISENHOWER AVE,Ames,IA,50010.0
1453,1220 TRUMAN PL,Ames,IA,50010.0
1454,3337 WESTON DR,Ames,IA,50010.0
1455,3808 HYDE AVE,Ames,IA,50010.0
1456,1312 CARROLL AVE,Ames,IA,50010.0
1457,2204 DUFF AVE,Ames,IA,50010.0
1458,223 E 6TH ST,Ames,IA,50010.0
1459,607 E 13TH ST,Ames,IA,50010.0
1460,5011 EMERSON DR,Ames,IA,50014.0
1461,618 13TH ST,Ames,IA,50010.0
1462,1111 BURNETT AVE,Ames,IA,50010.0
1463,2218 NORTHWESTERN AVE,Ames,IA,50010.0
1464,4004 TORONTO ST,Ames,IA,50014.0
1465,2216 FILLMORE AVE,Ames,IA,50010.0
1466,2723 HAMPTON ST,Ames,IA,50010.0
1467,421 HAYWARD AVE,Ames,IA,50014.0
1468,3332 FOXLEY DR,Ames,IA,50010.0
1469,1111 GARNER CIR,Ames,IA,50010.0
1470,2904 ROXBORO DR,Ames,IA,50010.0
1471,2103 CLARK AVE,Ames,IA,50010.0
1472,1320 GRAND AVE,Ames,IA,50010.0
1473,1002 POE AVE,Ames,IA,50014.0
1474,705 POE AVE,Ames,IA,50014.0
1475,1904 BEL AIR DR,Ames,IA,50010.0
1476,2825 BUCKINGHAM CT,Ames,IA,50010.0
1477,5025 KEATS ST,Ames,IA,50014.0
1478,604 CARROLL AVE,Ames,IA,50010.0
1479,2117 NORTHWESTERN AVE,Ames,IA,50010.0
1480,2838 BUCKINGHAM CT,Ames,IA,50010.0
1481,827 MILLER AVE,Ames,IA,50014.0
1482,3418 JEWEL DR,Ames,IA,50010.0
1483,546 MEADOW CT,Ames,IA,50010.0
1484,4811 IDAHO CIR,Ames,IA,50014.0
1485,836 BROOKRIDGE AVE,Ames,IA,50010.0
1486,1506 GOLDEN ASPEN DR,Ames,IA,50010.0
1487,3834 WELBECK DR,Ames,IA,50010.0
1488,3320 KINGMAN RD,Ames,IA,50014.0
1489,2404 WESTWIND DR,Ames,IA,50010.0
1490,2918 EISENHOWER AVE,Ames,IA,50010.0
1491,5000 EMERSON DR,Ames,IA,50014.0
1492,2749 CLEVELAND DR,Ames,IA,50010.0
1493,2720 THOMPSON DR,Ames,IA,50010.0
1494,1804 MAXWELL AVE,Ames,IA,50010.0
1495,1909 BEL AIR CIR,Ames,IA,50010.0
1496,3820 MARIGOLD DR,Ames,IA,50014.0
1497,3315 POLARIS DR,Ames,IA,50010.0
1498,3109 ALMOND RD,Ames,IA,50014.0
1499,1320 NEBRASKA AVE,Ames,IA,50014.0
1500,905 NORTH DAKOTA AVE,Ames,IA,50014.0
1501,611 CHELSEA CT,Ames,IA,50014.0
1502,3806 BERKSHIRE AVE,Ames,IA,50010.0
1503,917 TOP O HOLLOW RD,Ames,IA,50010.0
1504,5136 EMERSON DR,Ames,IA,50014.0
1505,925 YUMA AVE,Ames,IA,50014.0
1506,3009 TURQUOISE CIR,Ames,IA,50010.0
1507,4623 TWAIN ST,Ames,IA,50014.0
1508,5402 SCHUBERT ST,Ames,IA,50014.0
1509,3838 MARIGOLD DR,Ames,IA,50014.0
1510,3105 ROXBORO DR,Ames,IA,50010.0
1511,614 16TH ST,Ames,IA,50010.0
1512,1812 CLARK AVE,Ames,IA,50010.0
1513,3130 SEDWICK ST,Ames,IA,50010.0
1514,5325 KANSAS DR,Ames,IA,50014.0
1515,2907 DUFF AVE,Ames,IA,50010.0
1516,2037 COUNTRY CLUB BLVD,Ames,IA,50014.0
1517,2407 WESTWIND DR,Ames,IA,50010.0
1518,5020 EMERSON DR,Ames,IA,50014.0
1519,4024 ARKANSAS DR,Ames,IA,50014.0
1520,1706 CLARK AVE,Ames,IA,50010.0
1521,1322 ILLINOIS AVE,Ames,IA,50014.0
1522,3823 VIOLA MAE AVE,Ames,IA,50010.0
1523,2514 DALTON ST,Ames,IA,50010.0
1524,1117 JOHNSON ST,Ames,IA,50010.0
1525,715 GARNET DR,Ames,IA,50010.0
1526,308 N RUSSELL AVE,Ames,IA,50010.0
1527,2000 POLK DR,Ames,IA,50010.0
1528,630 RIVER OAK DR,Ames,IA,50010.0
1529,4023 MARIGOLD DR,Ames,IA,50014.0
1530,3218 OAKLAND ST,Ames,IA,50014.0
1531,736 GARNET DR,Ames,IA,50010.0
1532,2415 LAKESIDE DR,Ames,IA,50010.0
1533,4929 UTAH DR,Ames,IA,50014.0
1534,2523 DALTON ST,Ames,IA,50010.0
1535,1313 GARFIELD AVE,Ames,IA,50014.0
1536,609 SHELLEY AVE,Ames,IA,50014.0
1537,922 ARIZONA AVE,Ames,IA,50014.0
1538,2030 MELROSE AVE,Ames,IA,50010.0
1539,2731 CAMBRIDGE DR,Ames,IA,50010.0
1541,210 S RIVERSIDE DR,Ames,IA,50010.0
1542,2402 MELROSE AVE,Ames,IA,50010.0
1543,1411 20TH ST,Ames,IA,50010.0
1544,909 TENNYSON AVE,Ames,IA,50014.0
1545,409 S FRANKLIN AVE,Ames,IA,50014.0
1546,2014 KILDEE ST,Ames,IA,50014.0
1547,619 CRYSTAL ST,Ames,IA,50010.0
1548,3322 SOUTHDALE DR,Ames,IA,50010.0
1549,2409 SUNCREST DR,Ames,IA,50014.0
1550,1430 SUMMIT AVE,Ames,IA,50010.0
1551,507 HAYWARD AVE,Ames,IA,50014.0
1552,913 DELAWARE AVE,Ames,IA,50014.0
1553,1023 GRAND AVE,Ames,IA,50010.0
1554,522 SMILEY AVE,Ames,IA,50014.0
1555,306 COLORADO CIR,Ames,IA,50014.0
1556,2826 CAMBRIDGE DR,Ames,IA,50010.0
1557,2225 DONALD ST,Ames,IA,50014.0
1558,821 DELAWARE AVE,Ames,IA,50014.0
1559,1226 ROOSEVELT AVE,Ames,IA,50010.0
1560,1827 COOLIDGE DR,Ames,IA,50010.0
1561,431 OPAL CIR,Ames,IA,50010.0
1562,3127 ALMOND RD,Ames,IA,50014.0
1563,423 OLIVER AVE,Ames,IA,50014.0
1564,318 ROCKWELL AVE,Ames,IA,50014.0
1565,4122 QUEBEC ST,Ames,IA,50014.0
1566,521 BROWN CT,Ames,IA,50014.0
1567,3122 BAYBERRY RD,Ames,IA,50014.0
1568,2428 KINGSTON DR,Ames,IA,50010.0
1569,1712 WILSON AVE,Ames,IA,50010.0
1570,2916 HARRISON RD,Ames,IA,50010.0
1571,1912 DUFF AVE,Ames,IA,50010.0
1572,1226 CURTISS AVE,Ames,IA,50010.0
1573,4920 UTAH DR,Ames,IA,50014.0
1574,231 ABRAHAM DR,Ames,IA,50014.0
1575,1315 CARROLL AVE 1317,Ames,IA,50010.0
1576,406 PEARSON AVE,Ames,IA,50014.0
1577,4007 HYDE AVE,Ames,IA,50010.0
1578,5305 KANSAS DR,Ames,IA,50014.0
1579,5124 SCHUBERT ST,Ames,IA,50014.0
1580,1408 EDGEWATER CT,Ames,IA,
1581,217 E 7TH ST,Ames,IA,50010.0
1582,2922 HARRISON RD,Ames,IA,50010.0
1583,1005 HARDING AVE,Ames,IA,50010.0
1584,2312 CLAYTON DR,Ames,IA,50010.0
1585,3008 EISENHOWER CIR,Ames,IA,50010.0
1586,1319 ALBERTA AVE,Ames,IA,50014.0
1587,3112 EISENHOWER AVE,Ames,IA,50010.0
1588,1111 HARDING AVE,Ames,IA,50010.0
1589,1425 KELLOGG AVE,Ames,IA,50010.0
1590,3909 HYDE AVE,Ames,IA,50010.0
1591,1432 GRAND AVE,Ames,IA,50010.0
1592,3911 WESTLAWN DR,Ames,IA,50010.0
1593,1217 HARDING AVE,Ames,IA,50010.0
1594,2802 TORREY PINES CIR,Ames,IA,50010.0
1595,1611 DOUGLAS AVE,Ames,IA,50010.0
1596,5020 WALLER ST,Ames,IA,50014.0
1597,210 S FRANKLIN AVE,Ames,IA,50014.0
1598,1123 SCHOLL RD,Ames,IA,50014.0
1599,221 21ST ST,Ames,IA,50010.0
1600,3907 ROSS RD,Ames,IA,50014.0
1601,801 TENNYSON AVE,Ames,IA,50014.0
1602,619 ASH AVE,Ames,IA,50014.0
1603,517 HAYWARD AVE,Ames,IA,50014.0
1604,615 DULUTH ST 617,Ames,IA,50010.0
1605,1116 TOP O HOLLOW RD,Ames,IA,50010.0
1606,1404 28TH ST,Ames,IA,50010.0
1607,220 BEEDLE DR,Ames,IA,50014.0
1608,932 YUMA AVE,Ames,IA,50014.0
1609,2919 LINCOLN WAY,Ames,IA,50014.0
1610,1009 MAXWELL AVE,Ames,IA,50010.0
1611,1203 WILSON AVE,Ames,IA,50010.0
1612,418 12TH ST,Ames,IA,50010.0
1613,2019 FRILEY RD,Ames,IA,50014.0
1614,1403 COOLIDGE DR,Ames,IA,50010.0
1615,1642 JOHNSON ST,Ames,IA,50010.0
1616,207 ABRAHAM DR,Ames,IA,50014.0
1617,4831 HEMINGWAY DR,Ames,IA,50014.0
1618,1410 CARROLL AVE 1412,Ames,IA,50010.0
1619,600 RIDGEWOOD AVE,Ames,IA,50010.0
1620,511 10TH ST 513,Ames,IA,50010.0
1621,1515 NORTH DAKOTA AVE,Ames,IA,50014.0
1622,903 YUMA AVE,Ames,IA,50014.0
1623,538 HAYWARD AVE,Ames,IA,50014.0
1624,2314 WESTWIND DR,Ames,IA,50010.0
1625,4915 WESTBEND DR,Ames,IA,50014.0
1626,1422 SUMMIT AVE,Ames,IA,50010.0
1627,316 16TH ST,Ames,IA,50010.0
1629,3215 TUPELO CIR,Ames,IA,50014.0
1630,1304 16TH ST,Ames,IA,50010.0
1631,1115 ORCHARD DR,Ames,IA,50010.0
1632,208 S MAPLE AVE,Ames,IA,50010.0
1634,3265 DARTMOOR RD,Ames,IA,50014.0
1635,2513 PIERCE AVE,Ames,IA,50010.0
1636,3403 HONEYSUCKLE RD,Ames,IA,50010.0
1637,712 8TH ST,Ames,IA,50010.0
1638,5234 TEXAS CIR,Ames,IA,50014.0
1639,3326 SEDWICK ST,Ames,IA,50010.0
1640,4127 TORONTO ST,Ames,IA,50014.0
1641,1702 TOP O HOLLOW RD,Ames,IA,50010.0
1642,207 E 12TH ST,Ames,IA,50010.0
1643,2718 EISENHOWER AVE,Ames,IA,50010.0
1644,5229 NEVADA CIR,Ames,IA,50014.0
1645,5454 FROST DR,Ames,IA,50014.0
1646,409 BEEDLE DR,Ames,IA,50014.0
1647,812 ARIZONA AVE,Ames,IA,50014.0
1648,1112 KENNEDY ST,Ames,IA,50010.0
1649,621 DULUTH ST,Ames,IA,50010.0
1650,2512 EATON AVE,Ames,IA,50010.0
1651,1304 NORTHWESTERN AVE,Ames,IA,50010.0
1652,2629 STANGE RD,Ames,IA,50010.0
1654,306 21ST ST,Ames,IA,50010.0
1655,3307 NIXON AVE,Ames,IA,50010.0
1656,3140 EVERGREEN RD,Ames,IA,50014.0
1657,3909 HOOVER AVE,Ames,IA,50010.0
1658,2709 HAMPTON ST,Ames,IA,50010.0
1659,3913 HYDE AVE,Ames,IA,50010.0
1660,1422 BURNETT AVE,Ames,IA,50010.0
1661,713 8TH ST,Ames,IA,50010.0
1662,2602 CLAYTON DR,Ames,IA,50010.0
1663,307 S HAZEL AVE,Ames,IA,50010.0
1664,1009 MESA VERDE PL,Ames,IA,50014.0
1665,723 CARROLL AVE,Ames,IA,50010.0
1666,4014 BERKSHIRE AVE,Ames,IA,50010.0
1667,906 MURRAY DR,Ames,IA,50010.0
1668,3418 SOUTHDALE DR,Ames,IA,50010.0
1670,4126 APLIN RD,Ames,IA,50014.0
1671,3433 WOODLAND ST,Ames,IA,50014.0
1672,2812 ARBOR ST,Ames,IA,50014.0
1673,703 DUFF AVE,Ames,IA,50010.0
1674,4114 APLIN RD,Ames,IA,50014.0
1675,2423 GRANT CIR,Ames,IA,50010.0
1676,2317 FERNDALE AVE,Ames,IA,50010.0
1678,1818 24TH ST,Ames,IA,50010.0
1679,2217 DONALD ST,Ames,IA,50014.0
1680,1115 IOWA AVE,Ames,IA,50014.0
1681,2001 DOUGLAS AVE,Ames,IA,50010.0
1682,3905 MINNETONKA AVE,Ames,IA,50010.0
1683,209 HARTFORD DR,Ames,IA,50014.0
1684,723 WILDER BLVD,Ames,IA,50014.0
1685,1821 MAXWELL AVE,Ames,IA,50010.0
1686,213 7TH ST,Ames,IA,50010.0
1687,1125 GRAND AVE,Ames,IA,50010.0
1688,2430 RIDGETOP CIR,Ames,IA,50014.0
1689,2013 MELROSE AVE,Ames,IA,50010.0
1690,1911 STONE BROOKE RD,Ames,IA,50010.0
1691,2905 WOOD ST,Ames,IA,50014.0
1692,3902 EISENHOWER AVE,Ames,IA,50010.0
1693,3825 ONTARIO ST,Ames,IA,50014.0
1694,1329 GRAND AVE,Ames,IA,50010.0
1695,3320 EMERALD DR,Ames,IA,50010.0
1696,311 11TH ST,Ames,IA,50010.0
1697,3003 ROXBORO DR,Ames,IA,50010.0
1698,3020 HARRISON RD,Ames,IA,50010.0
1699,3220 MAGNOLIA CIR,Ames,IA,50014.0
1700,1218 WISCONSIN AVE,Ames,IA,50014.0
1701,5445 FROST DR,Ames,IA,50014.0
1702,5316 THACKERAY DR,Ames,IA,50014.0
1703,2234 KNAPP ST,Ames,IA,50014.0
1704,2033 FERNDALE AVE,Ames,IA,50010.0
1705,4011 DAWES DR,Ames,IA,50010.0
1706,513 GARDEN RD 515,Ames,IA,50010.0
1707,4007 WESTLAWN DR,Ames,IA,50010.0
1708,3006 KELLOGG AVE,Ames,IA,50010.0
1709,1422 CURTISS AVE,Ames,IA,50010.0
1711,5300 MARYLAND ST,Ames,IA,50014.0
1712,719 DOUGLAS AVE,Ames,IA,50010.0
1713,611 16TH ST,Ames,IA,50010.0
1714,1504 GOLDEN ASPEN DR,Ames,IA,50010.0
1715,2222 DUFF AVE,Ames,IA,50010.0
1716,1314 MAXWELL AVE,Ames,IA,50010.0
1717,418 STANTON AVE,Ames,IA,50014.0
1718,1427 SUMMIT AVE,Ames,IA,50010.0
1719,2408 WELBECK DR,Ames,IA,50010.0
1720,607 9TH ST 609,Ames,IA,50010.0
1721,1001 KENNEDY ST,Ames,IA,50010.0
1722,606 NORTHWESTERN AVE,Ames,IA,50010.0
1723,1021 CARROLL AVE,Ames,IA,50010.0
1724,2410 GRANT CIR,Ames,IA,50010.0
1725,2416 EATON AVE,Ames,IA,50010.0
1726,2306 CLARK AVE,Ames,IA,50010.0
1727,4204 CRESTMOOR AVE,Ames,IA,50010.0
1728,1306 IOWA CIR,Ames,IA,50014.0
1729,3022 ALMOND RD,Ames,IA,50014.0
1730,3211 TUPELO CIR,Ames,IA,50014.0
1732,908 TOP O HOLLOW RD,Ames,IA,50010.0
1733,1303 STAFFORD AVE,Ames,IA,50010.0
1734,3309 ROSS RD,Ames,IA,50014.0
1735,3205 MAGNOLIA CIR,Ames,IA,50014.0
1736,3839 BERKSHIRE AVE,Ames,IA,50010.0
1737,2735 DUFF AVE,Ames,IA,50010.0
1738,1512 KENTUCKY AVE,Ames,IA,50014.0
1739,3825 WELBECK DR,Ames,IA,50010.0
1740,4801 IDAHO CIR,Ames,IA,50014.0
1741,417 10TH ST,Ames,IA,50010.0
1742,2631 STANGE RD,Ames,IA,50010.0
1743,1305 TRUMAN PL,Ames,IA,50010.0
1744,4112 TORONTO ST,Ames,IA,50014.0
1745,3413 COY ST,Ames,IA,50014.0
1746,5015 EMERSON DR,Ames,IA,50014.0
1747,1034 VERMONT CT,Ames,IA,50014.0
1748,918 ROOSEVELT AVE,Ames,IA,50010.0
1749,2128 MELROSE AVE,Ames,IA,50010.0
1750,4634 TWAIN ST,Ames,IA,50014.0
1751,2711 CAMBRIDGE DR,Ames,IA,50010.0
1752,540 MEADOW CT,Ames,IA,50010.0
1754,1215 CURTISS AVE,Ames,IA,50010.0
1756,5207 TABOR DR,Ames,IA,50014.0
1757,2103 COUNTRY CLUB BLVD,Ames,IA,50014.0
1758,3831 BROOKDALE AVE,Ames,IA,50010.0
1759,1322 DOUGLAS AVE,Ames,IA,50010.0
1760,2304 COTTONWOOD RD,Ames,IA,50014.0
1761,923 MAXWELL AVE,Ames,IA,50010.0
1762,2116 NORTHWESTERN AVE,Ames,IA,50010.0
1763,2317 BAKER ST,Ames,IA,50014.0
1764,5305 NORRIS ST,Ames,IA,50014.0
1765,1423 ROOSEVELT AVE,Ames,IA,50010.0
1766,1460 BRECKINRIDGE CT,Ames,IA,50010.0
1767,320 ASH AVE,Ames,IA,50014.0
1768,1534 LINDEN DR,Ames,IA,50010.0
1769,3403 POLARIS DR,Ames,IA,50010.0
1770,611 HODGE AVE,Ames,IA,50010.0
1771,4939 HEMINGWAY DR,Ames,IA,50014.0
1772,2238 KNAPP ST,Ames,IA,50014.0
1773,120 MCDONALD DR,Ames,IA,50014.0
1774,5212 CERVANTES DR,Ames,IA,50014.0
1775,2921 NORTHWESTERN AVE,Ames,IA,50010.0
1776,126 S FRANKLIN AVE,Ames,IA,50014.0
1777,1141 OKLAHOMA DR,Ames,IA,50014.0
1778,324 WILDER BLVD,Ames,IA,50014.0
1779,1314 IOWA CIR,Ames,IA,50014.0
1780,1018 N 2ND ST,Ames,IA,50010.0
1781,515 24TH ST 517,Ames,IA,50010.0
1782,2613 YORKSHIRE ST,Ames,IA,50010.0
1783,3210 NIXON AVE,Ames,IA,50010.0
1784,4605 HEMINGWAY DR,Ames,IA,50014.0
1785,208 HARTFORD DR,Ames,IA,50014.0
1786,2317 CLARK AVE,Ames,IA,50010.0
1787,5512 MARYLAND ST,Ames,IA,50014.0
1788,2753 CLEVELAND DR,Ames,IA,50010.0
1789,1466 TRUMAN PL,Ames,IA,50010.0
1790,1124 N 2ND ST,Ames,IA,50010.0
1791,3130 BAYBERRY RD,Ames,IA,50014.0
1792,310 24TH ST,Ames,IA,50010.0
1793,1205 IDAHO CT,Ames,IA,50014.0
1794,1210 28TH ST,Ames,IA,50010.0
1795,1121 TOP O HOLLOW RD 1123,Ames,IA,50010.0
1796,3826 MARIGOLD DR,Ames,IA,50014.0
1797,432 E 20TH ST,Ames,IA,50010.0
1798,4033 EISENHOWER AVE,Ames,IA,50010.0
1799,2409 WELBECK DR,Ames,IA,50010.0
1800,2122 WINDFIELD DR,Ames,IA,50010.0
1801,228 SOUTH DAKOTA AVE,Ames,IA,50014.0
1802,2912 ONTARIO ST,Ames,IA,50014.0
1803,3022 STORY ST,Ames,IA,50014.0
1804,304 TOPAZ CT,Ames,IA,50010.0
1805,2521 LITTLE ST,Ames,IA,50014.0
1806,1512 MEADOWLANE AVE,Ames,IA,50010.0
1807,1128 JOHNSON ST,Ames,IA,50010.0
1809,2404 CLAYTON DR,Ames,IA,50010.0
1810,3318 EISENHOWER AVE,Ames,IA,50010.0
1811,713 CRAWFORD AVE,Ames,IA,50010.0
1812,3210 TUPELO CIR,Ames,IA,50014.0
1813,623 9TH ST,Ames,IA,50010.0
1814,4625 TWAIN ST,Ames,IA,50014.0
1815,510 NORTHWESTERN AVE,Ames,IA,50010.0
1816,4008 EDGEWATER DR,Ames,IA,50010.0
1817,2617 CLEVELAND DR,Ames,IA,50010.0
1818,2022 GREELEY ST,Ames,IA,50014.0
1822,815 FURMAN DR,Ames,IA,50010.0
1823,2500 NORTHWESTERN AVE,Ames,IA,50010.0
1824,426 E 20TH ST,Ames,IA,50010.0
1825,5027 EMERSON DR,Ames,IA,50014.0
1826,1201 ROOSEVELT AVE,Ames,IA,50010.0
1827,5419 KANSAS DR,Ames,IA,50014.0
1828,1520 BURNETT AVE,Ames,IA,50010.0
1829,2407 NORTHWESTERN AVE,Ames,IA,50010.0
1830,411 HARTFORD DR,Ames,IA,50014.0
1831,509 24TH ST,Ames,IA,50010.0
1832,2136 DUFF AVE,Ames,IA,50010.0
1833,5422 KANSAS DR,Ames,IA,50014.0
1834,333 PEARSON AVE,Ames,IA,50014.0
1835,107 S MAPLE AVE,Ames,IA,50010.0
1836,712 WILDER BLVD,Ames,IA,50014.0
1837,3039 BURNHAM DR,Ames,IA,50010.0
1838,1326 BARKLEY CT,Ames,IA,50010.0
1839,2130 PRAIRIE VIEW EAST,Ames,IA,50010.0
1840,2217 MELROSE AVE,Ames,IA,50010.0
1841,2438 WELBECK DR,Ames,IA,50010.0
1842,3304 NIXON AVE,Ames,IA,50010.0
1843,1112 IOWA AVE,Ames,IA,50014.0
1844,3218 LETTIE ST,Ames,IA,50014.0
1845,1103 CLARK AVE,Ames,IA,50010.0
1846,1110 JOHNSON ST,Ames,IA,50010.0
1847,3125 WESTON DR,Ames,IA,50010.0
1848,914 MURRAY DR,Ames,IA,50010.0
1849,4018 ONTARIO ST,Ames,IA,50014.0
1850,1511 INDIANA AVE,Ames,IA,50014.0
1851,3329 HARCOURT DR,Ames,IA,50010.0
1852,1418 NEBRASKA AVE,Ames,IA,50014.0
1853,4626 WEBSTER ST,Ames,IA,50014.0
1854,3834 MARIGOLD DR,Ames,IA,50014.0
1855,5402 CERVANTES DR,Ames,IA,50014.0
1856,1326 MAXWELL AVE,Ames,IA,50010.0
1857,1105 STAFFORD AVE,Ames,IA,50010.0
1858,1914 FERNDALE AVE,Ames,IA,50010.0
1859,618 9TH ST,Ames,IA,50010.0
1860,4709 CLEMENS BLVD,Ames,IA,50014.0
1861,217 DOTSON DR,Ames,IA,50014.0
1862,2204 FILLMORE AVE,Ames,IA,50010.0
1863,412 KEN MARIL RD,Ames,IA,50010.0
1864,2908 HARRISON RD,Ames,IA,50010.0
1865,3010 HARRISON RD,Ames,IA,50010.0
1866,3224 ROSS RD,Ames,IA,50014.0
1867,127 16TH ST,Ames,IA,50010.0
1868,115 15TH ST,Ames,IA,50010.0
1869,2621 GREEN HILLS DR,Ames,IA,50014.0
1870,2315 SUNDOWN DR,Ames,IA,50014.0
1871,411 HILLTOP RD,Ames,IA,50014.0
1873,4629 TWAIN ST,Ames,IA,50014.0
1874,213 S HYLAND AVE,Ames,IA,50014.0
1875,732 GARNET DR,Ames,IA,50010.0
1876,1117 KENNEDY ST,Ames,IA,50010.0
1877,3412 HARCOURT DR,Ames,IA,50010.0
1878,3809 PHOENIX ST,Ames,IA,50014.0
1879,328 CRYSTAL ST,Ames,IA,50010.0
1880,419 18TH ST,Ames,IA,50010.0
1881,1326 STAFFORD AVE,Ames,IA,50010.0
1882,1624 TOP O HOLLOW RD,Ames,IA,50010.0
1883,1415 DUFF AVE,Ames,IA,50010.0
1884,3714 S DUFF AVE,Ames,IA,50010.0
1885,1311 CARROLL AVE 1313,Ames,IA,50010.0
1886,1718 COOLIDGE DR,Ames,IA,50010.0
1887,2326 KNAPP ST,Ames,IA,50014.0
1888,1600 TRUMAN DR,Ames,IA,50010.0
1889,3714 WOODLAND ST,Ames,IA,50014.0
1890,1417 MARSTON AVE,Ames,IA,50010.0
1891,2403 WELBECK DR,Ames,IA,50010.0
1892,2406 WESTWIND DR,Ames,IA,50010.0
1893,3715 EMERALD DR,Ames,IA,50010.0
1894,2220 JENSEN AVE,Ames,IA,50010.0
1895,5213 TABOR DR,Ames,IA,50014.0
1896,3908 EISENHOWER AVE,Ames,IA,50010.0
1897,3019 BECKLEY ST,Ames,IA,50010.0
1898,1025 GASKILL DR,Ames,IA,50014.0
1899,2910 ROXBORO DR,Ames,IA,50010.0
1900,2888 MONROE DR,Ames,IA,50010.0
1901,821 MILLER AVE,Ames,IA,50014.0
1902,1217 SCOTT AVE,Ames,IA,50014.0
1903,3002 WOODLAND ST,Ames,IA,50014.0
1904,1322 DUFF AVE,Ames,IA,50010.0
1905,2220 ASH AVE,Ames,IA,50014.0
1907,2312 KNAPP ST,Ames,IA,50014.0
1908,712 CLARK AVE,Ames,IA,50010.0
1909,2623 STANGE RD,Ames,IA,50010.0
1910,1009 CLARK AVE,Ames,IA,50010.0
1911,624 CRYSTAL ST,Ames,IA,50010.0
1912,3301 ROSS RD,Ames,IA,50014.0
1913,2211 BUCHANAN DR,Ames,IA,50010.0
1914,1424 BRECKINRIDGE CT,Ames,IA,50010.0
1915,731 5TH ST,Ames,IA,50010.0
1916,513 9TH ST,Ames,IA,50010.0
1917,4202 STONE BROOKE RD,Ames,IA,50010.0
1918,1329 TRUMAN PL,Ames,IA,50010.0
1919,925 GASKILL DR,Ames,IA,50014.0
1920,113 S RUSSELL AVE,Ames,IA,50010.0
1921,1501 REAGAN DR,Ames,IA,50010.0
1922,3126 BURNHAM DR,Ames,IA,50010.0
1923,3209 WESTON DR,Ames,IA,50010.0
1924,3821 BROOKDALE AVE,Ames,IA,50010.0
1925,2644 CLEVELAND DR,Ames,IA,50010.0
1926,218 16TH ST,Ames,IA,50010.0
1927,2850 MONROE DR,Ames,IA,50010.0
1928,909 KELLOGG AVE,Ames,IA,50010.0
1929,3214 NIXON AVE,Ames,IA,50010.0
1930,1411 CURTISS AVE,Ames,IA,50010.0
1931,3118 ASPEN RD,Ames,IA,50014.0
1932,2810 WHITE OAK DR,Ames,IA,50014.0
1933,3113 HARRISON RD,Ames,IA,50010.0
1934,5322 DURANT ST,Ames,IA,50014.0
1936,4817 WALLER ST,Ames,IA,50014.0
1937,1111 ORCHARD DR,Ames,IA,50010.0
1938,1311 COOLIDGE DR,Ames,IA,50010.0
1939,925 MAXWELL AVE,Ames,IA,50010.0
1940,205 DOTSON DR,Ames,IA,50014.0
1942,1520 CALIFORNIA AVE,Ames,IA,50014.0
1945,2322 BUCHANAN DR,Ames,IA,50010.0
1946,4002 BRICKMAN AVE,Ames,IA,50010.0
1947,3813 WESTLAWN DR,Ames,IA,50010.0
1948,2822 OAKLAND ST 2824,Ames,IA,50014.0
1949,621 CLARK AVE,Ames,IA,50010.0
1950,2233 MCKINLEY CT,Ames,IA,50010.0
1951,321 E 6TH ST,Ames,IA,50010.0
1952,5318 DURANT ST,Ames,IA,50014.0
1953,2219 HAYES AVE,Ames,IA,50010.0
1954,2317 CAMDEN DR,Ames,IA,50010.0
1955,3001 SAPPHIRE CIR,Ames,IA,50010.0
1956,2522 PIERCE AVE,Ames,IA,50010.0
1958,1317 WILSON AVE,Ames,IA,50010.0
1959,1428 NORTHWESTERN AVE,Ames,IA,50010.0
1960,1012 TOP O HOLLOW RD,Ames,IA,50010.0
1961,1130 STAFFORD AVE,Ames,IA,50010.0
1962,4927 WESTBEND DR,Ames,IA,50014.0
1963,515 LYNN AVE,Ames,IA,50014.0
1964,425 20TH ST,Ames,IA,50010.0
1965,1413 WHEELER ST,Ames,IA,50010.0
1966,3813 EISENHOWER AVE,Ames,IA,50010.0
1967,3721 WOODLAND ST,Ames,IA,50014.0
1968,2056 PINEHURST DR,Ames,IA,50010.0
1969,5423 NORRIS ST,Ames,IA,50014.0
1970,1212 N 2ND ST,Ames,IA,50010.0
1971,828 BURNETT AVE,Ames,IA,50010.0
1972,3915 BRICKMAN AVE,Ames,IA,50010.0
1973,2413 KINGSTON DR,Ames,IA,50010.0
1974,4003 WESTLAWN DR,Ames,IA,50010.0
1975,3210 FOXLEY DR,Ames,IA,50010.0
1976,3917 VIOLA MAE AVE,Ames,IA,50010.0
1977,1020 10TH ST,Ames,IA,50010.0
1978,500 GARDEN RD,Ames,IA,50010.0
1979,2523 YORKSHIRE ST,Ames,IA,50010.0
1980,4617 TWAIN ST,Ames,IA,50014.0
1981,2407 DUFF AVE,Ames,IA,50010.0
1982,211 16TH ST,Ames,IA,50010.0
1983,3906 DAWES DR,Ames,IA,50010.0
1984,1313 CLARK AVE,Ames,IA,50010.0
1985,2908 WOOD ST,Ames,IA,50014.0
1986,1235 MICHIGAN AVE,Ames,IA,50014.0
1987,3410 EMERALD DR,Ames,IA,50010.0
1988,1316 DOUGLAS AVE,Ames,IA,50010.0
1989,1422 CALIFORNIA AVE,Ames,IA,50014.0
1990,129 E 9TH ST,Ames,IA,50010.0
1991,1616 AMHERST DR,Ames,IA,50014.0
1992,1308 ALBERTA AVE,Ames,IA,50014.0
1993,2822 ASPEN RD,Ames,IA,50010.0
1994,3128 KINGMAN RD,Ames,IA,50014.0
1995,2912 OAKLAND ST,Ames,IA,50014.0
1997,3819 VIOLA MAE AVE,Ames,IA,50010.0
1998,1512 STONE BROOKE RD,Ames,IA,50010.0
1999,2225 CLARK AVE,Ames,IA,50010.0
2000,2218 WINDFIELD DR,Ames,IA,50010.0
2001,914 BROOKRIDGE AVE,Ames,IA,50010.0
2002,2514 MELROSE AVE,Ames,IA,50010.0
2003,1942 STEVENSON DR,Ames,IA,50010.0
2004,2048 CESSNA ST,Ames,IA,50014.0
2005,1818 WATERBURY CIR,Ames,IA,50010.0
2006,3145 SYCAMORE RD,Ames,IA,50014.0
2007,2100 ASHMORE DR,Ames,IA,50014.0
2008,5407 DURANT ST,Ames,IA,50014.0
2009,2130 DUFF AVE,Ames,IA,50010.0
2010,1104 TOP O HOLLOW RD,Ames,IA,50010.0
2011,804 DUFF AVE,Ames,IA,50010.0
2012,2141 STEVENSON DR,Ames,IA,50010.0
2013,803 FURMAN DR,Ames,IA,50010.0
2014,2824 GREENSBORO DR,Ames,IA,50010.0
2015,3312 S DUFF AVE,Ames,IA,50010.0
2016,526 SMILEY AVE,Ames,IA,50014.0
2017,1422 CARROLL AVE,Ames,IA,50010.0
2018,314 12TH ST,Ames,IA,50010.0
2020,722 RIDGEWOOD AVE,Ames,IA,50010.0
2021,3328 JEFFERSON CIR,Ames,IA,50010.0
2022,2101 BUCHANAN DR,Ames,IA,50010.0
2023,3803 MINNETONKA AVE,Ames,IA,50010.0
2024,1537 LINDEN DR,Ames,IA,50010.0
2025,1332 ARIZONA AVE,Ames,IA,50014.0
2026,3210 WESTON DR,Ames,IA,50010.0
2027,2614 CAMDEN DR,Ames,IA,50010.0
2028,1303 KENTUCKY AVE,Ames,IA,50014.0
2029,2006 POLK DR,Ames,IA,50010.0
2030,1604 CLARK AVE,Ames,IA,50010.0
2031,617 BARR DR,Ames,IA,50010.0
2032,721 CLARK AVE,Ames,IA,50010.0
2033,119 HARTFORD DR,Ames,IA,50014.0
2034,3115 ASPEN RD,Ames,IA,50014.0
2035,5419 DURANT ST,Ames,IA,50014.0
2036,2943 NORTHWESTERN AVE,Ames,IA,50010.0
2037,1409 TRUMAN PL,Ames,IA,50010.0
2038,5405 NORRIS ST,Ames,IA,50014.0
2039,206 DOTSON DR,Ames,IA,50014.0
2040,5426 CLEMENS BLVD,Ames,IA,50014.0
2041,5311 NORRIS ST,Ames,IA,50014.0
2042,5500 KANSAS DR,Ames,IA,50014.0
2043,1021 LINCOLN WAY,Ames,IA,50010.0
2044,1827 MAXWELL AVE,Ames,IA,50010.0
2045,212 E 9TH ST,Ames,IA,50010.0
2046,2820 NORTHWOOD DR,Ames,IA,50010.0
2047,1906 WILSON AVE,Ames,IA,50010.0
2048,3011 LINCOLN WAY,Ames,IA,50014.0
2049,1948 WYNGATE DR,Ames,IA,50010.0
2050,1226 CARROLL AVE,Ames,IA,50010.0
2051,1323 GRAND AVE,Ames,IA,50010.0
2052,3102 BURNHAM DR,Ames,IA,50010.0
2053,3319 HARCOURT DR,Ames,IA,50010.0
2054,210 21ST ST,Ames,IA,50010.0
2056,4406 ROSS RD,Ames,IA,50014.0
2057,3115 VALLEY VIEW RD,Ames,IA,50014.0
2058,203 HARTFORD DR,Ames,IA,50014.0
2059,1516 BURNETT AVE,Ames,IA,50010.0
2060,2953 MONROE DR,Ames,IA,50010.0
2061,1226 MARSTON AVE,Ames,IA,50010.0
2062,2111 HAYES AVE 2113,Ames,IA,50010.0
2063,1012 GRAND AVE,Ames,IA,50010.0
2064,717 MEADOW PL,Ames,IA,50010.0
2065,3103 EISENHOWER AVE,Ames,IA,50010.0
2066,4619 TWAIN ST,Ames,IA,50014.0
2067,2305 BROADMOOR AVE,Ames,IA,50010.0
2068,3820 WESTLAWN DR,Ames,IA,50010.0
2070,4925 UTAH DR,Ames,IA,50014.0
2071,3304 HOOVER AVE,Ames,IA,50010.0
2072,2310 HAYES AVE,Ames,IA,50010.0
2073,1604 JACKSON DR,Ames,IA,50010.0
2074,1118 N 3RD ST,Ames,IA,50010.0
2075,304 S FRANKLIN AVE,Ames,IA,50014.0
2076,3011 BECKLEY ST,Ames,IA,50010.0
2077,1431 CARROLL AVE,Ames,IA,50010.0
2078,3421 EISENHOWER AVE,Ames,IA,50010.0
2079,1920 CLARK AVE,Ames,IA,50010.0
2080,508 LYNN AVE,Ames,IA,50014.0
2081,3207 JEWEL CIR,Ames,IA,50010.0
2082,2035 WYNGATE DR,Ames,IA,50010.0
2083,2118 IRONWOOD CT,Ames,IA,50014.0
2084,609 STANTON AVE,Ames,IA,50014.0
2085,1217 IDAHO AVE,Ames,IA,50014.0
2086,308 SOUTH DAKOTA AVE,Ames,IA,50014.0
2087,5307 MARYLAND ST,Ames,IA,50014.0
2088,1603 TRUMAN DR,Ames,IA,50010.0
2089,3514 ANNEAR ST,Ames,IA,50014.0
2090,1723 MAXWELL AVE,Ames,IA,50010.0
2091,4004 ONTARIO ST,Ames,IA,50014.0
2092,3920 DAWES DR,Ames,IA,50010.0
2093,1508 CARROLL AVE,Ames,IA,50010.0
2094,2911 RIDGETOP RD,Ames,IA,50014.0
2095,4920 CLEMENS BLVD,Ames,IA,50014.0
2096,5225 KANSAS DR,Ames,IA,50014.0
2097,2710 THOMPSON DR,Ames,IA,50010.0
2098,3833 MARIGOLD DR,Ames,IA,50014.0
2099,620 RIVER OAK DR,Ames,IA,50010.0
2100,1421 STAFFORD AVE,Ames,IA,50010.0
2101,321 CRANE AVE,Ames,IA,50014.0
2102,1107 SCOTT AVE,Ames,IA,50014.0
2103,3702 JEWEL DR,Ames,IA,50010.0
2104,1028 MARSTON AVE,Ames,IA,50010.0
2105,4101 ROSS RD,Ames,IA,50014.0
2106,429 E 6TH ST,Ames,IA,50010.0
2107,2231 CLARK AVE,Ames,IA,50010.0
2108,805 TENNYSON AVE,Ames,IA,50014.0
2109,3411 BUCHANAN CT,Ames,IA,50010.0
2110,4131 STONE BROOKE RD,Ames,IA,50010.0
2111,810 HODGE AVE,Ames,IA,50010.0
2112,2905 ONTARIO ST 2907,Ames,IA,50014.0
2113,4908 CLEMENS BLVD,Ames,IA,50014.0
2114,5221 MARYLAND ST,Ames,IA,50014.0
2115,1015 ROOSEVELT AVE,Ames,IA,50010.0
2116,2118 GREENBRIAR CIR,Ames,IA,50014.0
2117,1315 MARSTON AVE,Ames,IA,50010.0
2118,1608 JACKSON DR,Ames,IA,50010.0
2119,3412 JEWEL DR,Ames,IA,50010.0
2120,2144 SUNSET DR 2146,Ames,IA,50014.0
2121,217 S HYLAND AVE,Ames,IA,50014.0
2122,901 RIDGEWOOD AVE,Ames,IA,50010.0
2123,540 FOREST GLEN,Ames,IA,50014.0
2124,618 DOYLE AVE,Ames,IA,50014.0
2125,5249 THACKERAY DR,Ames,IA,50014.0
2126,1207 ARIZONA AVE,Ames,IA,50014.0
2127,3805 TORONTO ST,Ames,IA,50014.0
2128,307 CRYSTAL ST,Ames,IA,50010.0
2130,1139 JOHNSON ST,Ames,IA,50010.0
2132,2416 KINGSTON DR,Ames,IA,50010.0
2133,4521 CLEMENS BLVD,Ames,IA,50014.0
2134,2006 WYNGATE DR,Ames,IA,50010.0
2135,3316 PRESTON CIR,Ames,IA,50010.0
2136,2511 KELLOGG AVE,Ames,IA,50010.0
2137,2919 NORTHWOOD DR,Ames,IA,50010.0
2138,1412 MEADOWLANE AVE,Ames,IA,50010.0
2140,5309 TABOR DR,Ames,IA,50014.0
2141,2105 FRILEY RD,Ames,IA,50014.0
2142,2502 BRISTOL DR,Ames,IA,50010.0
2143,437 HILLTOP RD,Ames,IA,50014.0
2144,811 12TH ST,Ames,IA,50010.0
2145,1412 NEBRASKA AVE,Ames,IA,50014.0
2146,2917 EISENHOWER AVE,Ames,IA,50010.0
2147,2206 WINDFIELD DR,Ames,IA,50010.0
2148,4709 TWAIN ST,Ames,IA,50014.0
2149,3116 BURNHAM DR,Ames,IA,50010.0
2150,1409 MAXWELL AVE,Ames,IA,50010.0
2151,2421 CLAYTON DR,Ames,IA,50010.0
2152,1304 20TH ST,Ames,IA,50010.0
2153,2620 CAMDEN DR,Ames,IA,50010.0
2154,3139 SYCAMORE RD,Ames,IA,50014.0
2155,925 CARROLL AVE,Ames,IA,50010.0
2156,2160 COUNTRY CLUB BLVD,Ames,IA,50014.0
2157,3115 COTTONTAIL LN,Ames,IA,50014.0
2158,202 STATE AVE,Ames,IA,50014.0
2159,1402 DOUGLAS AVE,Ames,IA,50010.0
2160,808 10TH ST,Ames,IA,50010.0
2161,3812 ONTARIO ST,Ames,IA,50014.0
2162,5317 KANSAS DR,Ames,IA,50014.0
2163,818 TENNYSON AVE,Ames,IA,50014.0
2164,318 HILLTOP RD,Ames,IA,50014.0
2165,2324 STORM ST,Ames,IA,50014.0
2166,4313 HARRISON CIR,Ames,IA,50010.0
2167,225 PARKRIDGE CIR,Ames,IA,50014.0
2168,4500 HEMINGWAY DR,Ames,IA,50014.0
2169,3215 GARNER AVE,Ames,IA,50010.0
2170,430 OLIVER AVE,Ames,IA,50014.0
2171,1701 AMHERST DR,Ames,IA,50014.0
2172,2226 DONALD ST,Ames,IA,50014.0
2173,2721 HAMPTON ST,Ames,IA,50010.0
2174,2818 TORREY PINES RD,Ames,IA,50010.0
2175,2018 BURNETT AVE,Ames,IA,50010.0
2176,1416 JEFFERSON ST,Ames,IA,50010.0
2177,2708 STATE AVE,Ames,IA,50014.0
2178,2012 COUNTRY CLUB BLVD,Ames,IA,50014.0
2179,3422 CLINTON CT,Ames,IA,50010.0
2180,1232 ARIZONA AVE,Ames,IA,50014.0
2181,218 ROCKWELL AVE,Ames,IA,50014.0
2182,1518 GOLDEN ASPEN DR,Ames,IA,50010.0
2183,4908 WALLER ST,Ames,IA,50014.0
2184,407 PEARSON AVE,Ames,IA,50014.0
2185,3604 ANNEAR ST,Ames,IA,50014.0
2186,1126 CLARK AVE,Ames,IA,50010.0
2187,1406 RIDGEWOOD AVE,Ames,IA,50010.0
2188,4907 SCHUBERT ST,Ames,IA,50014.0
2189,220 S MAPLE AVE,Ames,IA,50010.0
2190,322 WESTWOOD DR,Ames,IA,50014.0
2191,606 DOYLE AVE,Ames,IA,50014.0
2192,2860 GREENSBORO CIR,Ames,IA,50010.0
2193,1471 TRUMAN PL,Ames,IA,50010.0
2194,5513 DURANT ST,Ames,IA,50014.0
2197,1204 20TH ST,Ames,IA,50010.0
2198,1423 GLENDALE AVE,Ames,IA,50010.0
2199,3906 WESTLAWN DR,Ames,IA,50010.0
2200,5232 SCHUBERT ST,Ames,IA,50014.0
2201,2318 JENSEN AVE,Ames,IA,50010.0
2202,3201 FOXLEY DR,Ames,IA,50010.0
2203,2604 KINGSTON DR,Ames,IA,50010.0
2204,614 20TH ST,Ames,IA,50010.0
2205,2417 BRADFORD DR,Ames,IA,50010.0
2206,1436 BRECKINRIDGE CT,Ames,IA,50010.0
2207,3232 ELLIS ST,Ames,IA,50014.0
2208,304 SOUTH DAKOTA AVE,Ames,IA,50014.0
2209,2509 STORM ST 2511,Ames,IA,50014.0
2210,824 CLARK AVE,Ames,IA,50010.0
2211,5121 EMERSON DR,Ames,IA,50014.0
2212,1017 KENNEDY ST,Ames,IA,50010.0
2213,3316 ONTARIO ST,Ames,IA,50014.0
2214,2926 ROXBORO DR,Ames,IA,50010.0
2215,3312 DARTMOOR LN,Ames,IA,50014.0
2216,3005 BURNHAM DR,Ames,IA,50010.0
2217,5416 KANSAS DR,Ames,IA,50014.0
2218,1211 BURNETT AVE,Ames,IA,50010.0
2219,3431 SOUTHDALE DR,Ames,IA,50010.0
2221,2342 STORM ST,Ames,IA,50014.0
2222,2707 HAMPTON ST,Ames,IA,50010.0
2223,2802 THOMPSON DR,Ames,IA,50010.0
2224,5334 CERVANTES DR,Ames,IA,50014.0
2225,717 10TH ST,Ames,IA,50010.0
2226,1323 CARROLL AVE,Ames,IA,50010.0
2227,2110 PRAIRIE VIEW EAST,Ames,IA,50010.0
2228,902 ARIZONA AVE,Ames,IA,50014.0
2229,2222 STORM ST,Ames,IA,50014.0
2230,2223 MELROSE AVE,Ames,IA,50010.0
2231,1239 ORCHARD DR,Ames,IA,50010.0
2232,5404 NORRIS ST,Ames,IA,50014.0
2233,4624 CLEMENS BLVD,Ames,IA,50014.0
2234,633 9TH ST,Ames,IA,50010.0
2235,303 N RUSSELL AVE,Ames,IA,50010.0
2236,2805 WHITE OAK DR,Ames,IA,50014.0
2237,2221 CLARK AVE,Ames,IA,50010.0
2238,930 DUFF AVE,Ames,IA,50010.0
2239,809 HUNZIKER DR,Ames,IA,50010.0
2241,2920 NORTHRIDGE PKWY,Ames,IA,50014.0
2242,2804 NORTHWESTERN AVE,Ames,IA,50010.0
2243,623 RIVER OAK DR,Ames,IA,50010.0
2244,3611 OAKLAND ST,Ames,IA,50014.0
2245,1230 MARSTON AVE,Ames,IA,50010.0
2246,2017 NORTHWESTERN AVE,Ames,IA,50010.0
2247,2816 LINCOLN WAY,Ames,IA,50014.0
2248,1209 SCHOLL RD,Ames,IA,50014.0
2249,3018 DIAMOND ST,Ames,IA,50010.0
2250,1465 BRECKINRIDGE CT,Ames,IA,50010.0
2251,3119 HARRISON RD,Ames,IA,50010.0
2252,5007 KANSAS DR,Ames,IA,50014.0
2253,3902 VALLEY VIEW RD,Ames,IA,50010.0
2254,3515 EMERALD DR,Ames,IA,50010.0
2255,1712 COOLIDGE DR,Ames,IA,50010.0
2256,5303 THACKERAY DR,Ames,IA,50014.0
2257,512 10TH ST,Ames,IA,50010.0
2258,818 MURRAY DR,Ames,IA,50010.0
2259,3825 MARIGOLD DR,Ames,IA,50014.0
2260,1123 HARDING AVE,Ames,IA,50010.0
2261,618 CRAWFORD AVE,Ames,IA,50010.0
2262,4142 TORONTO ST,Ames,IA,50014.0
2263,3113 RED FOX RD,Ames,IA,50014.0
2264,830 RIDGEWOOD AVE,Ames,IA,50010.0
2265,336 ROCKWELL AVE,Ames,IA,50014.0
2266,212 S HAZEL AVE,Ames,IA,50010.0
2267,1111 OKLAHOMA DR,Ames,IA,50014.0
2268,3733 BLANSHAN DR,Ames,IA,50010.0
2269,1401 RIDGEWOOD AVE,Ames,IA,50010.0
2270,1103 WILSON AVE,Ames,IA,50010.0
2271,2004 GREENBRIAR CIR,Ames,IA,50014.0
2272,3101 BECKLEY ST,Ames,IA,50010.0
2273,515 BROWN CT,Ames,IA,50014.0
2274,202 TODD CIR,Ames,IA,
2275,2827 WOOD ST,Ames,IA,50014.0
2276,1109 MARSTON AVE,Ames,IA,50010.0
2277,321 JEWEL DR,Ames,IA,50010.0
2278,1718 ROOSEVELT AVE,Ames,IA,50010.0
2279,1704 PIERCE CT,Ames,IA,50010.0
2280,2149 PRAIRIE VIEW EAST,Ames,IA,50010.0
2281,217 S HAZEL AVE,Ames,IA,50010.0
2282,411 E 13TH ST,Ames,IA,50010.0
2283,815 8TH ST,Ames,IA,50010.0
2284,125 13TH ST,Ames,IA,50010.0
2285,1330 GRAND AVE,Ames,IA,50010.0
2286,311 DOTSON DR,Ames,IA,50014.0
2287,3306 KENT AVE,Ames,IA,50010.0
2288,1111 28TH ST,Ames,IA,50010.0
2289,317 NORTH DAKOTA AVE,Ames,IA,50014.0
2290,2231 STORM ST,Ames,IA,50014.0
2291,2826 MONROE DR,Ames,IA,50010.0
2292,2816 PINEHURST CIR,Ames,IA,50010.0
2293,4002 MARIGOLD DR,Ames,IA,50014.0
2294,3318 SOUTHDALE DR,Ames,IA,50010.0
2295,2933 WHITE OAK DR,Ames,IA,50014.0
2296,1320 INDIANA AVE,Ames,IA,50014.0
2298,4205 WESTBROOK DR,Ames,IA,50014.0
2299,1225 ARIZONA AVE,Ames,IA,50014.0
2300,2902 WOOD ST,Ames,IA,50014.0
2301,1220 CARROLL AVE,Ames,IA,50010.0
2302,3820 BERKSHIRE AVE,Ames,IA,50010.0
2303,4309 HARRISON CIR,Ames,IA,50010.0
2304,1431 MARSTON AVE,Ames,IA,50010.0
2305,120 E 7TH ST,Ames,IA,50010.0
2306,719 KELLOGG AVE,Ames,IA,50010.0
2307,224 SOUTH DAKOTA AVE,Ames,IA,50014.0
2308,2877 GREENSBORO CIR,Ames,IA,50010.0
2309,116 15TH ST,Ames,IA,50010.0
2310,1310 WOODSTOCK AVE,Ames,IA,50014.0
2312,5426 KANSAS DR,Ames,IA,50014.0
2313,4205 COCHRANE PKWY,Ames,IA,0.0
2314,1410 16TH ST,Ames,IA,50010.0
2317,3125 WHITETAIL LN,Ames,IA,50014.0
2318,1109 OKLAHOMA DR,Ames,IA,50014.0
2319,1819 24TH ST,Ames,IA,50010.0
2321,2500 KELLOGG AVE,Ames,IA,50010.0
2322,2529 NORTHWOOD DR,Ames,IA,50010.0
2323,2816 GREENSBORO DR,Ames,IA,50010.0
2324,2911 EISENHOWER AVE,Ames,IA,50010.0
2325,2213 JENSEN AVE,Ames,IA,50010.0
2326,3822 HYDE AVE,Ames,IA,50010.0
2327,3508 EMERALD DR,Ames,IA,50010.0
2328,1519 STONE BROOKE RD,Ames,IA,50010.0
2330,322 TOPAZ CT,Ames,IA,50010.0
2331,3103 CEDAR LN,Ames,IA,50013.0
2332,4011 HYDE AVE,Ames,IA,50010.0
2333,3321 KINGMAN RD,Ames,IA,50014.0
2334,1019 KENNEDY ST,Ames,IA,50010.0
2335,910 BURNETT AVE,Ames,IA,50010.0
2336,1123 N 3RD ST,Ames,IA,50010.0
2337,2609 STANGE RD,Ames,IA,50010.0
2338,809 CLARK AVE,Ames,IA,50010.0
2339,2301 FERNDALE AVE,Ames,IA,50010.0
2340,2110 COUNTRY CLUB BLVD,Ames,IA,50014.0
2341,1461 BRECKINRIDGE CT,Ames,IA,50010.0
2343,2908 WHITE OAK DR,Ames,IA,50014.0
2344,3115 BECKLEY ST,Ames,IA,50010.0
2345,1230 BURNETT AVE,Ames,IA,50010.0
2346,2220 BURNETT AVE,Ames,IA,50010.0
2347,3720 COLUMBINE CIR,Ames,IA,50010.0
2348,4805 WALLER ST,Ames,IA,50014.0
2349,4105 BRICKMAN AVE,Ames,IA,50010.0
2350,5428 NORRIS ST,Ames,IA,50014.0
2351,1226 IDAHO CT,Ames,IA,50014.0
2352,1112 ROOSEVELT AVE,Ames,IA,50010.0
2353,3808 WESTLAWN DR,Ames,IA,50010.0
2354,1406 JEFFERSON ST,Ames,IA,50010.0
2355,2032 PINEHURST DR,Ames,IA,50010.0
2356,3033 BURNHAM DR,Ames,IA,50010.0
2357,3327 PRESTON CIR,Ames,IA,50010.0
2358,1531 ROOSEVELT AVE,Ames,IA,50010.0
2359,1337 ARIZONA AVE,Ames,IA,50014.0
2360,3810 BERKSHIRE AVE,Ames,IA,50010.0
2361,721 NORTHWESTERN AVE,Ames,IA,50010.0
2362,4630 CLEMENS BLVD,Ames,IA,50014.0
2363,5443 CLEMENS BLVD,Ames,IA,50014.0
2364,1323 ARIZONA AVE,Ames,IA,50014.0
2365,3840 WESTLAWN DR,Ames,IA,50010.0
2366,4519 HEMINGWAY DR,Ames,IA,50014.0
2367,1415 KENTUCKY AVE,Ames,IA,50014.0
2368,4213 WESTBROOK DR,Ames,IA,50014.0
2370,502 ELY CIR,Ames,IA,50010.0
2371,403 HILLTOP RD,Ames,IA,50014.0
2372,2825 LINCOLN WAY,Ames,IA,50014.0
2373,508 ELY CIR,Ames,IA,50010.0
2374,500 KEN MARIL RD,Ames,IA,50010.0
2375,1210 KINYON CIR,Ames,IA,50010.0
2376,1206 26TH ST,Ames,IA,50010.0
2377,1317 TRUMAN PL,Ames,IA,50010.0
2378,1014 MARSTON AVE,Ames,IA,50010.0
2379,5412 MARYLAND ST,Ames,IA,50014.0
2380,5425 DURANT ST,Ames,IA,50014.0
2381,1004 GRAND AVE,Ames,IA,50010.0
2382,1626 BURNETT AVE,Ames,IA,50010.0
2383,1323 JEFFERSON ST,Ames,IA,50010.0
2384,2031 FRILEY RD,Ames,IA,50014.0
2385,2012 TAYLOR CIR,Ames,IA,50010.0
2386,2510 WHITE OAK DR,Ames,IA,50014.0
2387,3814 BERKSHIRE AVE,Ames,IA,50010.0
2388,1511 CARROLL AVE,Ames,IA,50010.0
2389,3903 ARKANSAS DR,Ames,IA,50014.0
2390,1121 CLARK AVE,Ames,IA,50010.0
2391,3830 PHOENIX ST,Ames,IA,50014.0
2392,4139 STONE BROOKE RD,Ames,IA,50010.0
2393,1936 WYNGATE DR,Ames,IA,50010.0
2394,2304 JENSEN AVE,Ames,IA,50010.0
2395,114 E 8TH ST,Ames,IA,50010.0
2396,3102 ASPEN RD,Ames,IA,50014.0
2397,1219 24TH ST,Ames,IA,50010.0
2398,1108 JOHNSON ST,Ames,IA,50010.0
2399,3917 WESTLAWN DR,Ames,IA,50010.0
2400,923 NEW HAMPSHIRE CIR,Ames,IA,50014.0
2401,1319 MAXWELL AVE,Ames,IA,50010.0
2402,2732 THOMPSON DR,Ames,IA,50010.0
2404,3422 HARCOURT DR,Ames,IA,50010.0
2405,1926 GEORGE ALLEN AVE,Ames,IA,50010.0
2406,4636 TWAIN ST,Ames,IA,50014.0
2407,2215 STORM ST,Ames,IA,50014.0
2408,2854 TORREY PINES RD,Ames,IA,50010.0
2409,302 VILLAGE DR,Ames,IA,50014.0
2410,502 BROWN CT,Ames,IA,50014.0
2411,3126 SYCAMORE RD,Ames,IA,50014.0
2412,2612 CLEVELAND DR,Ames,IA,50010.0
2413,4106 BRICKMAN AVE,Ames,IA,50010.0
2414,1418 DOUGLAS AVE,Ames,IA,50010.0
2415,3803 BROOKDALE AVE,Ames,IA,50010.0
2416,5228 SCHUBERT ST,Ames,IA,50014.0
2417,4017 WEMBLEY AVE,Ames,IA,50010.0
2418,1013 WILSON AVE,Ames,IA,50010.0
2419,1608 STONE BROOKE RD,Ames,IA,50010.0
2420,1119 MARSTON AVE,Ames,IA,50010.0
2421,1023 MARSTON AVE,Ames,IA,50010.0
2422,815 DUFF AVE,Ames,IA,50010.0
2423,1803 WILSON AVE,Ames,IA,50010.0
2424,512 STANTON AVE,Ames,IA,50014.0
2425,3116 DIAMOND ST,Ames,IA,50010.0
2426,811 DOUGLAS AVE,Ames,IA,50010.0
2427,3411 HARCOURT DR,Ames,IA,50010.0
2429,2854 MONROE DR,Ames,IA,50010.0
2430,616 18TH ST,Ames,IA,50010.0
2431,623 CRYSTAL ST,Ames,IA,50010.0
2432,211 N HAZEL AVE,Ames,IA,50010.0
2433,3121 BECKLEY ST,Ames,IA,50010.0
2434,3913 MINNETONKA AVE,Ames,IA,50010.0
2435,3424 OAKLAND ST,Ames,IA,50014.0
2436,1528 LINDEN DR,Ames,IA,50010.0
2437,3026 EVERGREEN CIR,Ames,IA,50014.0
2438,3913 TORONTO ST,Ames,IA,50014.0
2439,505 SMILEY AVE,Ames,IA,50014.0
2440,4009 BRICKMAN AVE,Ames,IA,50010.0
2442,3107 HARRISON RD,Ames,IA,50010.0
2443,3212 WOODLAND ST,Ames,IA,50014.0
2444,1127 BURNETT AVE,Ames,IA,50010.0
2445,1930 WINDFIELD DR,Ames,IA,50010.0
2446,1228 STAFFORD AVE,Ames,IA,50010.0
2447,4011 BERKSHIRE AVE,Ames,IA,50010.0
2448,2204 JENSEN AVE,Ames,IA,50010.0
2449,821 POE AVE,Ames,IA,50014.0
2450,3115 CEDAR LN,Ames,IA,50013.0
2451,1412 HARDING AVE,Ames,IA,50010.0
2452,3023 CEDAR LN,Ames,IA,50014.0
2453,3823 BERKSHIRE AVE,Ames,IA,50010.0
2454,2318 CLAYTON DR,Ames,IA,50010.0
2455,429 HAYWARD AVE,Ames,IA,50014.0
2456,402 S FRANKLIN AVE 404,Ames,IA,50014.0
2457,2634 SOMERSET DR,Ames,IA,50010.0
2458,4209 CRESTMOOR AVE,Ames,IA,50010.0
2459,3804 TORONTO ST,Ames,IA,50014.0
2460,2027 POLK DR,Ames,IA,50010.0
2461,2203 JENSEN AVE,Ames,IA,50010.0
2463,229 S RUSSELL AVE,Ames,IA,50010.0
2464,2103 JENSEN AVE,Ames,IA,50010.0
2465,3418 HARCOURT DR,Ames,IA,50010.0
2466,1112 WHEELER ST,Ames,IA,50010.0
2467,3413 HARCOURT DR,Ames,IA,50010.0
2468,728 GARNET DR,Ames,IA,50010.0
2469,1309 KINYON CIR,Ames,IA,50010.0
2471,1212 BURNETT AVE,Ames,IA,50010.0
2472,1223 25TH ST,Ames,IA,50010.0
2473,3322 WEST ST,Ames,IA,50014.0
2474,619 MEADOW PL,Ames,IA,50010.0
2475,4918 TODD DR,Ames,IA,50014.0
2476,1509 CLARK AVE,Ames,IA,50010.0
2477,806 VERMONT CIR,Ames,IA,50014.0
2478,812 HUNZIKER DR,Ames,IA,50010.0
2479,5307 CLEMENS BLVD,Ames,IA,50014.0
2480,3001 HEMLOCK CIR,Ames,IA,50014.0
2481,320 E 7TH ST,Ames,IA,50010.0
2482,1325 WILSON AVE,Ames,IA,50010.0
2483,1324 GARFIELD AVE,Ames,IA,50014.0
2484,1003 MARSTON AVE,Ames,IA,50010.0
2485,1118 JOHNSON ST,Ames,IA,50010.0
2486,4015 HYDE AVE,Ames,IA,50010.0
2487,3008 WOOD ST,Ames,IA,50014.0
2488,317 PEARSON AVE,Ames,IA,50014.0
2489,3312 EISENHOWER AVE,Ames,IA,50010.0
2490,1441 SUMMIT AVE,Ames,IA,50010.0
2491,1318 KELLOGG AVE,Ames,IA,50010.0
2492,510 26TH ST,Ames,IA,50010.0
2493,2016 PINEHURST DR,Ames,IA,50010.0
2494,4020 HASTINGS AVE,Ames,IA,50010.0
2495,1507 DUFF AVE,Ames,IA,50010.0
2496,1130 SCHOLL RD,Ames,IA,50014.0
2497,3304 OPAL DR 3306,Ames,IA,50010.0
2498,5421 FROST DR,Ames,IA,50014.0
2500,1229 NORTHWESTERN AVE,Ames,IA,50010.0
2501,1127 ARIZONA AVE,Ames,IA,50014.0
2502,129 S MAPLE AVE,Ames,IA,50010.0
2503,1215 N 2ND ST,Ames,IA,50010.0
2504,2411 GRANT CIR,Ames,IA,50010.0
2505,1103 MARSTON AVE,Ames,IA,50010.0
2506,3332 SEDWICK ST,Ames,IA,50010.0
2507,2403 LAKESIDE DR,Ames,IA,50010.0
2508,1703 BEL AIR DR,Ames,IA,50010.0
2509,3223 LETTIE ST,Ames,IA,50014.0
2510,2207 MELROSE AVE,Ames,IA,50010.0
2511,722 DOUGLAS AVE,Ames,IA,50010.0
2512,1407 CLARK AVE,Ames,IA,50010.0
2513,2610 TIMBERLAND RD,Ames,IA,50014.0
2514,3631 ROSS RD,Ames,IA,50014.0
2515,317 E 6TH ST,Ames,IA,50010.0
2516,1318 WILSON AVE,Ames,IA,50010.0
2517,743 GARNET DR 745,Ames,IA,50010.0
2518,1115 GRAND AVE,Ames,IA,50010.0
2519,1333 ARIZONA AVE,Ames,IA,50014.0
2520,1621 GRAND AVE,Ames,IA,50010.0
2521,2528 DALTON ST,Ames,IA,50010.0
2522,2410 KINGSTON DR,Ames,IA,50010.0
2523,2824 ROSS RD,Ames,IA,50014.0
2524,4303 WEMBLEY AVE,Ames,IA,50010.0
2525,2953 NORTHWESTERN AVE,Ames,IA,50010.0
2526,2708 EISENHOWER AVE,Ames,IA,50010.0
2527,4633 HEMINGWAY DR,Ames,IA,50014.0
2528,1224 ORCHARD DR,Ames,IA,50010.0
2529,2302 FURMAN DR,Ames,IA,50010.0
2530,3908 FLETCHER BLVD,Ames,IA,50010.0
2531,3120 WESTON DR,Ames,IA,50010.0
2533,1213 S 2ND ST,Ames,IA,50010.0
2534,3412 ONTARIO ST,Ames,IA,50014.0
2535,2041 DUFF AVE,Ames,IA,50010.0
2536,821 CRYSTAL ST,Ames,IA,50010.0
2537,1515 INDIANA AVE,Ames,IA,50014.0
2538,1510 INDIANA AVE,Ames,IA,50014.0
2539,1209 IDAHO AVE,Ames,IA,50014.0
2540,2808 OAKLAND ST,Ames,IA,50014.0
2541,826 YUMA AVE,Ames,IA,50014.0
2542,922 MESA VERDE PL,Ames,IA,50014.0
2543,1703 24TH ST,Ames,IA,50010.0
2544,3838 BRICKMAN AVE,Ames,IA,50010.0
2545,609 ONYX ST,Ames,IA,50010.0
2546,3626 STORY ST,Ames,IA,50014.0
2547,621 RIDGEWOOD AVE,Ames,IA,50010.0
2548,3905 QUEBEC ST,Ames,IA,50014.0
2549,1019 ROOSEVELT AVE,Ames,IA,50010.0
2550,423 PAULSON DR,Ames,IA,50010.0
2551,307 ROCKWELL AVE,Ames,IA,50014.0
2552,617 CLARK AVE,Ames,IA,50010.0
2553,1020 RIDGEWOOD AVE,Ames,IA,50010.0
2554,210 E 11TH ST,Ames,IA,50010.0
2555,619 E 13TH ST,Ames,IA,50010.0
2556,626 10TH ST,Ames,IA,50010.0
2557,5224 THACKERAY DR,Ames,IA,50014.0
2558,2022 HUNZIKER DR,Ames,IA,50010.0
2559,1416 DUFF AVE,Ames,IA,50010.0
2560,706 CLARK AVE,Ames,IA,50010.0
2561,1605 CLARK AVE,Ames,IA,50010.0
2562,4003 HYDE AVE,Ames,IA,50010.0
2563,5013 KEATS ST,Ames,IA,50014.0
2564,4612 CLEMENS BLVD,Ames,IA,50014.0
2565,1817 BURNETT AVE,Ames,IA,50010.0
2566,4018 ARKANSAS DR,Ames,IA,50014.0
2567,306 22ND ST,Ames,IA,50010.0
2568,2708 BRISTOL DR,Ames,IA,50010.0
2569,3724 EISENHOWER AVE,Ames,IA,50010.0
2570,2448 WELBECK DR,Ames,IA,50010.0
2571,2712 LUTHER DR,Ames,IA,50010.0
2573,2734 NORTHRIDGE LN,Ames,IA,50010.0
2574,2218 IRONWOOD CT,Ames,IA,50014.0
2575,130 S RIVERSIDE DR,Ames,IA,50010.0
2576,1311 GRAND AVE,Ames,IA,50010.0
2577,3838 HYDE AVE,Ames,IA,50010.0
2578,3814 QUEBEC ST,Ames,IA,50014.0
2579,3909 TORONTO ST,Ames,IA,50014.0
2580,4011 LINCOLN WAY,Ames,IA,50014.0
2581,1008 MURRAY DR,Ames,IA,50010.0
2582,4019 MARIGOLD DR,Ames,IA,50014.0
2583,1021 RIDGEWOOD AVE,Ames,IA,50010.0
2584,3619 MARY CIR,Ames,IA,50014.0
2585,2140 SUNSET DR 2142,Ames,IA,50014.0
2586,5319 CLEMENS BLVD,Ames,IA,50014.0
2587,1025 VERMONT CT,Ames,IA,50014.0
